NORAD_CAT_ID,OBJECT_NAME,OBJECT_TYPE,EPOCH,MEAN_MOTION,ECCENTRICITY,INCLINATION,RA_OF_ASC_NODE,ARG_OF_PERICENTER,MEAN_ANOMALY,BSTAR,MEAN_MOTION_DOT,MEAN_MOTION_DDOT,TLE_LINE0,TLE_LINE1,TLE_LINE2,SEMIMAJOR_AXIS,PERIOD,APOGEE,PERIGEE,DECAYED
50159.0,STARLINK-3297,PAYLOAD,2023-04-21 13:04:05,15.08841339,0.0001233,53.2156,306.8845,67.6682,292.4441,0.00014527,2.025e-05,0.0,0 STARLINK-3297,1 50159U 21125D   23111.54450628  .00002025  00000-0  14527-3 0  9994,2 50159  53.2156 306.8845 0001233  67.6682 292.4441 15.08841339 77464,6917.876,95.437,540.594,538.888,0.0
50159.0,STARLINK-3297,PAYLOAD,2023-04-21 19:25:37,15.08846417,0.0001338,53.2154,305.6956,68.2673,291.8461,0.00025568,3.784e-05,0.0,0 STARLINK-3297,1 50159U 21125D   23111.80946559  .00003784  00000-0  25568-3 0  9996,2 50159  53.2154 305.6956 0001338  68.2673 291.8461 15.08846417 77507,6917.861,95.437,540.651,538.8,0.0
50159.0,STARLINK-3297,PAYLOAD,2023-04-22 12:54:52,15.08843077,0.0001097,53.2148,302.4218,68.6045,291.5064,2.642e-05,1.33e-06,0.0,0 STARLINK-3297,1 50159U 21125D   23112.53810493  .00000133  00000-0  26420-4 0  9998,2 50159  53.2148 302.4218 0001097  68.6045 291.5064 15.08843077 77612,6917.871,95.437,540.495,538.977,0.0
50159.0,STARLINK-3297,PAYLOAD,2023-04-22 20:51:47,15.08845703,0.0001253,53.2151,300.9359,80.2133,279.9001,0.00015755,2.221e-05,0.0,0 STARLINK-3297,1 50159U 21125D   23112.86930388  .00002221  00000-0  15755-3 0  9998,2 50159  53.2151 300.9359 0001253  80.2133 279.9001 15.08845703 77661,6917.863,95.437,540.595,538.861,0.0
50159.0,STARLINK-3297,PAYLOAD,2023-04-23 12:45:39,15.08835744,0.0001023,53.2159,297.9615,86.1693,273.9416,5.3684e-05,5.67e-06,0.0,0 STARLINK-3297,1 50159U 21125D   23113.53171032  .00000567  00000-0  53684-4 0  9991,2 50159  53.2159 297.9615 0001023  86.1693 273.9416 15.08835744 74227,6917.893,95.438,540.466,539.051,0.0
50159.0,STARLINK-3297,PAYLOAD,2023-04-23 17:31:48,15.0885159,0.0001125,53.2158,297.0693,92.9218,267.1903,0.00032686,4.92e-05,0.0,0 STARLINK-3297,1 50159U 21125D   23113.73042682  .00004920  00000-0  32686-3 0  9996,2 50159  53.2158 297.0693 0001125  92.9218 267.1903 15.08851590 74250,6917.845,95.437,540.488,538.932,0.0
50159.0,STARLINK-3297,PAYLOAD,2023-04-24 12:36:25,15.08866176,9.93e-05,53.216,293.5008,94.1614,265.9491,0.00059563,9.211e-05,0.0,0 STARLINK-3297,1 50159U 21125D   23114.52529803  .00009211  00000-0  59563-3 0  9990,2 50159  53.2160 293.5008 0000993  94.1614 265.9491 15.08866176 77910,6917.8,95.436,540.352,538.978,0.0
50159.0,STARLINK-3297,PAYLOAD,2023-04-25 12:27:12,15.08849925,6.54e-05,53.2168,289.0405,72.1326,287.9737,-0.00012561,-2.287e-05,0.0,0 STARLINK-3297,1 50159U 21125D   23115.51889069 -.00002287  00000-0 -12561-3 0  9998,2 50159  53.2168 289.0405 0000654  72.1326 287.9737 15.08849925 74523,6917.85,95.437,540.167,539.263,0.0
50159.0,STARLINK-3297,PAYLOAD,2023-04-26 10:42:37,15.08819182,8.37e-05,53.2151,284.8778,82.0408,278.0679,-0.00033285,-5.578e-05,0.0,0 STARLINK-3297,1 50159U 21125D   23116.44626420 -.00005578  00000-0 -33285-3 0  9993,2 50159  53.2151 284.8778 0000837  82.0408 278.0679 15.08819182 78202,6917.944,95.439,540.388,539.23,0.0
50159.0,STARLINK-3297,PAYLOAD,2023-04-26 13:53:23,15.08833845,7.61e-05,53.2152,284.2834,90.5031,269.6048,-0.0007179,-0.00011693,0.0,0 STARLINK-3297,1 50159U 21125D   23116.57874007 -.00011693  00000-0 -71790-3 0  9991,2 50159  53.2152 284.2834 0000761  90.5031 269.6048 15.08833845 78222,6917.899,95.438,540.291,539.238,0.0
50159.0,STARLINK-3297,PAYLOAD,2023-04-27 10:33:24,15.08838611,9.07e-05,53.2164,280.4166,78.8096,281.2998,6.6912e-05,7.77e-06,0.0,0 STARLINK-3297,1 50159U 21125D   23117.43987013  .00000777  00000-0  66912-4 0  9999,2 50159  53.2164 280.4166 0000907  78.8096 281.2998 15.08838611 78357,6917.885,95.438,540.377,539.122,0.0
50159.0,STARLINK-3297,PAYLOAD,2023-04-27 20:05:43,15.08842816,0.0001281,53.2151,278.6315,76.9051,283.2084,0.00039368,5.984e-05,0.0,0 STARLINK-3297,1 50159U 21125D   23117.83731012  .00005984  00000-0  39368-3 0  9998,2 50159  53.2151 278.6315 0001281  76.9051 283.2084 15.08842816 74877,6917.872,95.437,540.623,538.851,0.0
50159.0,STARLINK-3297,PAYLOAD,2023-04-28 04:02:39,15.08833425,0.0001311,53.2152,277.1461,78.5343,281.5796,0.00025439,3.762e-05,0.0,0 STARLINK-3297,1 50159U 21125D   23118.16851722  .00003762  00000-0  25439-3 0  9992,2 50159  53.2152 277.1461 0001311  78.5343 281.5796 15.08833425 74923,6917.9,95.438,540.672,538.859,0.0
50159.0,STARLINK-3297,PAYLOAD,2023-04-28 10:24:12,15.08837488,0.0001143,53.2151,275.9577,74.1897,285.9221,0.00022117,3.234e-05,0.0,0 STARLINK-3297,1 50159U 21125D   23118.43347603  .00003234  00000-0  22117-3 0  9994,2 50159  53.2151 275.9577 0001143  74.1897 285.9221 15.08837488 78507,6917.888,95.438,540.544,538.962,0.0
50159.0,STARLINK-3297,PAYLOAD,2023-04-29 13:25:45,15.08841274,8.39e-05,53.2146,270.9014,84.6971,275.4117,0.00021091,3.071e-05,0.0,0 STARLINK-3297,1 50159U 21125D   23119.55955602  .00003071  00000-0  21091-3 0  9991,2 50159  53.2146 270.9014 0000839  84.6971 275.4117 15.08841274 78676,6917.876,95.437,540.322,539.161,0.0
50159.0,STARLINK-3297,PAYLOAD,2023-04-29 16:36:31,15.08845753,9.3e-05,53.2155,270.3072,80.5023,279.6074,0.00021125,3.076e-05,0.0,0 STARLINK-3297,1 50159U 21125D   23119.69203443  .00003076  00000-0  21125-3 0  9998,2 50159  53.2155 270.3072 0000930  80.5023 279.6074 15.08845753 75153,6917.863,95.437,540.371,539.084,0.0
50159.0,STARLINK-3297,PAYLOAD,2023-04-30 13:16:32,15.08843435,8.74e-05,53.2158,266.4423,80.9529,279.1561,0.00029605,4.427e-05,0.0,0 STARLINK-3297,1 50159U 21125D   23120.55315591  .00004427  00000-0  29605-3 0  9995,2 50159  53.2158 266.4423 0000874  80.9529 279.1561 15.08843435 78822,6917.87,95.437,540.34,539.13,0.0
50159.0,STARLINK-3297,PAYLOAD,2023-04-30 14:51:55,15.08844093,0.0001012,53.2162,266.1449,83.6706,276.4401,0.00019466,2.812e-05,0.0,0 STARLINK-3297,1 50159U 21125D   23120.61939516  .00002812  00000-0  19466-3 0  9991,2 50159  53.2162 266.1449 0001012  83.6706 276.4401 15.08844093 75296,6917.868,95.437,540.433,539.033,0.0
50159.0,STARLINK-3297,PAYLOAD,2023-05-01 13:07:19,15.08838989,0.0001181,53.2172,261.9755,117.9308,242.1804,1.8982e-05,1.4e-07,0.0,0 STARLINK-3297,1 50159U 21125D   23121.54675610  .00000014  00000-0  18982-4 0  9991,2 50159  53.2172 261.9755 0001181 117.9308 242.1804 15.08838989 78978,6917.883,95.438,540.565,538.931,0.0
50159.0,STARLINK-3297,PAYLOAD,2023-05-01 14:42:42,15.08839,0.0001127,53.2167,261.6785,118.7496,241.3609,2.1039e-05,4.7e-07,0.0,0 STARLINK-3297,1 50159U 21125D   23121.61299602  .00000047  00000-0  21039-4 0  9995,2 50159  53.2167 261.6785 0001127 118.7496 241.3609 15.08839000 75447,6917.883,95.438,540.528,538.969,0.0
50159.0,STARLINK-3297,PAYLOAD,2023-05-02 12:58:06,15.08846622,8.48e-05,53.2162,257.5198,75.5167,284.5919,0.00011298,1.511e-05,0.0,0 STARLINK-3297,1 50159U 21125D   23122.54035366  .00001511  00000-0  11298-3 0  9995,2 50159  53.2162 257.5198 0000848  75.5167 284.5919 15.08846622 79128,6917.86,95.437,540.312,539.139,0.0
50159.0,STARLINK-3297,PAYLOAD,2023-05-02 17:44:15,15.08853045,7.89e-05,53.2158,256.6282,92.1138,267.9944,0.000209,3.041e-05,0.0,0 STARLINK-3297,1 50159U 21125D   23122.73906972  .00003041  00000-0  20900-3 0  9996,2 50159  53.2158 256.6282 0000789  92.1138 267.9944 15.08853045 75614,6917.841,95.437,540.251,539.16,0.0
50159.0,STARLINK-3297,PAYLOAD,2023-05-03 01:41:11,15.08842265,8.41e-05,53.2163,255.1415,93.1834,266.9254,4.1903e-05,3.79e-06,0.0,0 STARLINK-3297,1 50159U 21125D   23123.07027456  .00000379  00000-0  41903-4 0  9993,2 50159  53.2163 255.1415 0000841  93.1834 266.9254 15.08842265 75665,6917.873,95.437,540.32,539.157,0.0
50159.0,STARLINK-3297,PAYLOAD,2023-05-03 12:48:54,15.0883409,8.34e-05,53.2157,253.06,94.9692,265.1396,-2.1561e-05,-6.31e-06,0.0,0 STARLINK-3297,1 50159U 21125D   23123.53396004 -.00000631  00000-0 -21561-4 0  9993,2 50159  53.2157 253.0600 0000834  94.9692 265.1396 15.08834090 75737,6917.898,95.438,540.34,539.187,0.0
50159.0,STARLINK-3297,PAYLOAD,2023-05-03 17:35:03,15.08841369,8.87e-05,53.2156,252.1679,98.2721,261.8372,9.4916e-05,1.223e-05,0.0,0 STARLINK-3297,1 50159U 21125D   23123.73267664  .00001223  00000-0  94916-4 0  9994,2 50159  53.2156 252.1679 0000887  98.2721 261.8372 15.08841369 79301,6917.876,95.437,540.355,539.128,0.0
50159.0,STARLINK-3297,PAYLOAD,2023-05-04 12:39:40,15.08846147,7.95e-05,53.2155,248.5994,103.039,257.0691,9.016e-05,1.148e-05,0.0,0 STARLINK-3297,1 50159U 21125D   23124.52755394  .00001148  00000-0  90160-4 0  9997,2 50159  53.2155 248.5994 0000795 103.0390 257.0691 15.08846147 79427,6917.862,95.437,540.277,539.177,0.0
50159.0,STARLINK-3297,PAYLOAD,2023-05-04 15:50:26,15.08850442,7.96e-05,53.2155,248.0042,103.5165,256.5916,0.00024773,3.658e-05,0.0,0 STARLINK-3297,1 50159U 21125D   23124.66003224  .00003658  00000-0  24773-3 0  9994,2 50159  53.2155 248.0042 0000796 103.5165 256.5916 15.08850442 79441,6917.848,95.437,540.264,539.163,0.0
50159.0,STARLINK-3297,PAYLOAD,2023-05-05 07:44:18,15.08838724,8.37e-05,53.2156,245.0335,88.512,271.5968,0.00014048,1.949e-05,0.0,0 STARLINK-3297,1 50159U 21125D   23125.32243864  .00001949  00000-0  14048-3 0  9999,2 50159  53.2156 245.0335 0000837  88.5120 271.5968 15.08838724 76005,6917.884,95.438,540.328,539.17,0.0
50159.0,STARLINK-3297,PAYLOAD,2023-05-05 14:05:51,15.08836915,0.0001026,53.2163,243.8431,81.5567,278.5541,3.7096e-05,3.03e-06,0.0,0 STARLINK-3297,1 50159U 21125D   23125.58740134  .00000303  00000-0  37096-4 0  9991,2 50159  53.2163 243.8431 0001026  81.5567 278.5541 15.08836915 79585,6917.89,95.438,540.465,539.045,0.0
50159.0,STARLINK-3297,PAYLOAD,2023-05-06 13:56:37,15.08849861,8.77e-05,53.216,239.3789,110.8914,249.2172,0.00015507,2.182e-05,0.0,0 STARLINK-3297,1 50159U 21125D   23126.58099537  .00002182  00000-0  15507-3 0  9995,2 50159  53.2160 239.3789 0000877 110.8914 249.2172 15.08849861 79739,6917.85,95.437,540.322,539.109,0.0
